start=new Date('2023-02-13T00:00:00.000Z').valueOf();
sats=[{"SEMIMAJOR_AXIS":"6925.330","APOAPSIS":"547.930","TLE_LINE2":"2 48448  53.0518 174.3107 0001062  72.5896 287.5209 15.06406069 97658","FILE":"3787692","COUNTRY_CODE":"US","OBJECT_NAME":"STARLINK-2632","RA_OF_ASC_NODE":"174.3107","ECCENTRICITY":"0.00010620","MEAN_ANOMALY":"287.5209","SITE":"AFETR","MEAN_ELEMENT_THEORY":"SGP4","OBJECT_ID":"2021-040W","RCS_SIZE":"LARGE","ELEMENT_SET_NO":"999","BSTAR":"0.00091051000000","REV_AT_EPOCH":"9765","PERIOD":"95.592","OBJECT_TYPE":"PAYLOAD","REF_FRAME":"TEME","DECAY_DATE":null,"MEAN_MOTION_DOT":"0.00013309","NORAD_CAT_ID":"48448","LAUNCH_DATE":"2021-05-09","CENTER_NAME":"EARTH","MEAN_MOTION_DDOT":"0.0000000000000","EPOCH":"2023-02-12T14:48:12.924000","TLE_LINE1":"1 48448U 21040W   23043.61681625  .00013309  00000-0  91051-3 0  9997","CLASSIFICATION_TYPE":"U","EPHEMERIS_TYPE":"0","ARG_OF_PERICENTER":"72.5896","MEAN_MOTION":"15.06406069","PERIAPSIS":"546.459","TIME_SYSTEM":"UTC","GP_ID":"225235398","INCLINATION":"53.0518"},{"TLE_LINE1":"1 48449U 21040X   23043.85365693  .00010508  00000-0  72288-3 0  9997","EPOCH":"2023-02-12T20:29:15.958752","MEAN_MOTION_DDOT":"0.0000000000000","INCLINATION":"53.0535","TIME_SYSTEM":"UTC","GP_ID":"225273363","PERIAPSIS":"546.449","MEAN_MOTION":"15.06419590","EPHEMERIS_TYPE":"0","ARG_OF_PERICENTER":"115.2591","CLASSIFICATION_TYPE":"U","PERIOD":"95.591","REV_AT_EPOCH":"9897","BSTAR":"0.00072288000000","ELEMENT_SET_NO":"999","CENTER_NAME":"EARTH","LAUNCH_DATE":"2021-05-09","NORAD_CAT_ID":"48449","MEAN_MOTION_DOT":"0.00010508","DECAY_DATE":null,"REF_FRAME":"TEME","OBJECT_TYPE":"PAYLOAD","MEAN_ELEMENT_THEORY":"SGP4","SITE":"AFETR","MEAN_ANOMALY":"244.8503","RCS_SIZE":"LARGE","OBJECT_ID":"2021-040X","COUNTRY_CODE":"US","OBJECT_NAME":"STARLINK-2655","FILE":"3788026","TLE_LINE2":"2 48449  53.0535 173.2476 0001017 115.2591 244.8503 15.06419590 98974","APOAPSIS":"547.858","SEMIMAJOR_AXIS":"6925.289","ECCENTRICITY":"0.00010170","RA_OF_ASC_NODE":"173.2476"},{"LAUNCH_DATE":"2021-05-09","CENTER_NAME":"EARTH","MEAN_MOTION_DOT":"0.00002363","NORAD_CAT_ID":"48450","DECAY_DATE":null,"REF_FRAME":"TEME","OBJECT_TYPE":"PAYLOAD","PERIOD":"95.592","REV_AT_EPOCH":"9894","BSTAR":"0.00017747000000","ELEMENT_SET_NO":"999","INCLINATION":"53.0533","GP_ID":"225273362","TIME_SYSTEM":"UTC","PERIAPSIS":"546.458","MEAN_MOTION":"15.06401681","EPHEMERIS_TYPE":"0","ARG_OF_PERICENTER":"88.5996","CLASSIFICATION_TYPE":"U","TLE_LINE1":"1 48450U 21040Y   23043.65093476  .00002363  00000-0  17747-3 0  9993","EPOCH":"2023-02-12T15:37:20.763264","MEAN_MOTION_DDOT":"0.0000000000000","ECCENTRICITY":"0.00010840","RA_OF_ASC_NODE":"174.1605","COUNTRY_CODE":"US","OBJECT_NAME":"STARLINK-2660","FILE":"3788026","TLE_LINE2":"2 48450  53.0533 174.1605 0001084  88.5996 271.5117 15.06401681 98940","APOAPSIS":"547.959","SEMIMAJOR_AXIS":"6925.343","RCS_SIZE":"LARGE","OBJECT_ID":"2021-040Y","MEAN_ELEMENT_THEORY":"SGP4","MEAN_ANOMALY":"271.5117","SITE":"AFETR"},{"TLE_LINE2":"2 48451  53.0505 173.8999 0001394  80.6248 279.4899 15.06400657 98956","APOAPSIS":"548.177","COUNTRY_CODE":"US","OBJECT_NAME":"STARLINK-2652","FILE":"3788033","SEMIMAJOR_AXIS":"6925.347","RA_OF_ASC_NODE":"173.8999","ECCENTRICITY":"0.00013940","MEAN_ELEMENT_THEORY":"SGP4","SITE":"AFETR","MEAN_ANOMALY":"279.4899","RCS_SIZE":"LARGE","OBJECT_ID":"2021-040Z","REV_AT_EPOCH":"9895","BSTAR":"0.00006729600000","PERIOD":"95.592","ELEMENT_SET_NO":"999","NORAD_CAT_ID":"48451","MEAN_MOTION_DOT":"0.00000721","LAUNCH_DATE":"2021-05-09","CENTER_NAME":"EARTH","DECAY_DATE":null,"REF_FRAME":"TEME","OBJECT_TYPE":"PAYLOAD","TLE_LINE1":"1 48451U 21040Z   23043.71634513  .00000721  00000-0  67296-4 0  9995","MEAN_MOTION_DDOT":"0.0000000000000","EPOCH":"2023-02-12T17:11:32.219232","TIME_SYSTEM":"UTC","GP_ID":"225273561","INCLINATION":"53.0505","EPHEMERIS_TYPE":"0","ARG_OF_PERICENTER":"80.6248","CLASSIFICATION_TYPE":"U","PERIAPSIS":"546.246","MEAN_MOTION":"15.06400657"},{"ECCENTRICITY":"0.00011530","RA_OF_ASC_NODE":"174.7443","SEMIMAJOR_AXIS":"6925.134","FILE":"3787692","COUNTRY_CODE":"US","OBJECT_NAME":"STARLINK-2703","APOAPSIS":"547.797","TLE_LINE2":"2 48452  53.0509 174.7443 0001153 105.7531 254.3585 15.06470145 97640","OBJECT_ID":"2021-040AA","RCS_SIZE":"LARGE","SITE":"AFETR","MEAN_ANOMALY":"254.3585","MEAN_ELEMENT_THEORY":"SGP4","OBJECT_TYPE":"PAYLOAD","DECAY_DATE":null,"REF_FRAME":"TEME","LAUNCH_DATE":"2021-05-09","CENTER_NAME":"EARTH","MEAN_MOTION_DOT":"0.00048720","NORAD_CAT_ID":"48452","ELEMENT_SET_NO":"999","PERIOD":"95.588","BSTAR":"0.00326100000000","REV_AT_EPOCH":"9764","MEAN_MOTION":"15.06470145","PERIAPSIS":"546.200","CLASSIFICATION_TYPE":"U","EPHEMERIS_TYPE":"0","ARG_OF_PERICENTER":"105.7531","INCLINATION":"53.0509","GP_ID":"225234899","TIME_SYSTEM":"UTC","EPOCH":"2023-02-12T12:20:56.049504","MEAN_MOTION_DDOT":"0.0000000000000","TLE_LINE1":"1 48452U 21040AA  23043.51453761  .00048720  00000-0  32610-2 0  9999"},{"ELEMENT_SET_NO":"999","REV_AT_EPOCH":"9897","BSTAR":"0.00200380000000","PERIOD":"95.590","REF_FRAME":"TEME","DECAY_DATE":null,"OBJECT_TYPE":"PAYLOAD","MEAN_MOTION_DOT":"0.00029717","NORAD_CAT_ID":"48453","LAUNCH_DATE":"2021-05-09","CENTER_NAME":"EARTH","MEAN_MOTION_DDOT":"0.0000000000000","EPOCH":"2023-02-12T20:13:20.923392","TLE_LINE1":"1 48453U 21040AB  23043.84260328  .00029717  00000-0  20038-2 0  9997","ARG_OF_PERICENTER":"87.3155","EPHEMERIS_TYPE":"0","CLASSIFICATION_TYPE":"U","PERIAPSIS":"546.296","MEAN_MOTION":"15.06431556","TIME_SYSTEM":"UTC","GP_ID":"225273567","INCLINATION":"53.0516","SEMIMAJOR_AXIS":"6925.252","TLE_LINE2":"2 48453  53.0516 173.3000 0001185  87.3155 272.7970 15.06431556 98977","APOAPSIS":"547.937","COUNTRY_CODE":"US","OBJECT_NAME":"STARLINK-2620","FILE":"3788033","RA_OF_ASC_NODE":"173.3000","ECCENTRICITY":"0.00011850","MEAN_ANOMALY":"272.7970","SITE":"AFETR","MEAN_ELEMENT_THEORY":"SGP4","OBJECT_ID":"2021-040AB","RCS_SIZE":"LARGE"},{"ELEMENT_SET_NO":"999","REV_AT_EPOCH":"9895","BSTAR":"0.00021607000000","PERIOD":"95.593","REF_FRAME":"TEME","DECAY_DATE":null,"OBJECT_TYPE":"PAYLOAD","NORAD_CAT_ID":"48454","MEAN_MOTION_DOT":"0.00002938","LAUNCH_DATE":"2021-05-09","CENTER_NAME":"EARTH","MEAN_MOTION_DDOT":"0.0000000000000","EPOCH":"2023-02-12T16:56:58.702272","TLE_LINE1":"1 48454U 21040AC  23043.70623498  .00002938  00000-0  21607-3 0  9994","ARG_OF_PERICENTER":"77.9236","EPHEMERIS_TYPE":"0","CLASSIFICATION_TYPE":"U","PERIAPSIS":"546.019","MEAN_MOTION":"15.06393972","GP_ID":"225273570","TIME_SYSTEM":"UTC","INCLINATION":"53.0558","SEMIMAJOR_AXIS":"6925.367","TLE_LINE2":"2 48454  53.0558 173.9017 0001752  77.9236 282.1950 15.06393972 98953","APOAPSIS":"548.445","COUNTRY_CODE":"US","OBJECT_NAME":"STARLINK-2654","FILE":"3788027","RA_OF_ASC_NODE":"173.9017","ECCENTRICITY":"0.00017520","SITE":"AFETR","MEAN_ANOMALY":"282.1950","MEAN_ELEMENT_THEORY":"SGP4","OBJECT_ID":"2021-040AC","RCS_SIZE":"LARGE"},{"OBJECT_TYPE":"PAYLOAD","DECAY_DATE":null,"REF_FRAME":"TEME","NORAD_CAT_ID":"48455","MEAN_MOTION_DOT":"0.00002073","LAUNCH_DATE":"2021-05-09","CENTER_NAME":"EARTH","ELEMENT_SET_NO":"999","BSTAR":"0.00015800000000","REV_AT_EPOCH":"9764","PERIOD":"95.592","CLASSIFICATION_TYPE":"U","EPHEMERIS_TYPE":"0","ARG_OF_PERICENTER":"94.2705","MEAN_MOTION":"15.06400938","PERIAPSIS":"546.162","TIME_SYSTEM":"UTC","GP_ID":"225235159","INCLINATION":"53.0531","MEAN_MOTION_DDOT":"0.0000000000000","EPOCH":"2023-02-12T13:40:34.789440","TLE_LINE1":"1 48455U 21040AD  23043.56984710  .00002073  00000-0  15800-3 0  9994","RA_OF_ASC_NODE":"174.5214","ECCENTRICITY":"0.00015140","SEMIMAJOR_AXIS":"6925.346","APOAPSIS":"548.259","TLE_LINE2":"2 48455  53.0531 174.5214 0001514  94.2705 265.8457 15.06400938 97646","FILE":"3787692","COUNTRY_CODE":"US","OBJECT_NAME":"STARLINK-2497","OBJECT_ID":"2021-040AD","RCS_SIZE":"LARGE","SITE":"AFETR","MEAN_ANOMALY":"265.8457","MEAN_ELEMENT_THEORY":"SGP4"},{"INCLINATION":"53.0519","GP_ID":"225273576","TIME_SYSTEM":"UTC","PERIAPSIS":"546.112","MEAN_MOTION":"15.06420412","EPHEMERIS_TYPE":"0","ARG_OF_PERICENTER":"93.8120","CLASSIFICATION_TYPE":"U","TLE_LINE1":"1 48456U 21040AE  23043.83154739  .00023540  00000-0  15931-2 0  9991","EPOCH":"2023-02-12T19:57:25.694496","MEAN_MOTION_DDOT":"0.0000000000000","LAUNCH_DATE":"2021-05-09","CENTER_NAME":"EARTH","NORAD_CAT_ID":"48456","MEAN_MOTION_DOT":"0.00023540","REF_FRAME":"TEME","DECAY_DATE":null,"OBJECT_TYPE":"PAYLOAD","PERIOD":"95.591","REV_AT_EPOCH":"9829","BSTAR":"0.00159310000000","ELEMENT_SET_NO":"999","RCS_SIZE":"LARGE","OBJECT_ID":"2021-040AE","MEAN_ELEMENT_THEORY":"SGP4","MEAN_ANOMALY":"266.3041","SITE":"AFETR","ECCENTRICITY":"0.00015010","RA_OF_ASC_NODE":"173.3466","OBJECT_NAME":"STARLINK-2508","COUNTRY_CODE":"US","FILE":"3788027","TLE_LINE2":"2 48456  53.0519 173.3466 0001501  93.8120 266.3041 15.06420412 98297","APOAPSIS":"548.190","SEMIMAJOR_AXIS":"6925.286"},{"OBJECT_ID":"2021-040AG","RCS_SIZE":"LARGE","MEAN_ANOMALY":"277.4597","SITE":"AFETR","MEAN_ELEMENT_THEORY":"SGP4","RA_OF_ASC_NODE":"179.8660","ECCENTRICITY":"0.00013940","SEMIMAJOR_AXIS":"6925.376","APOAPSIS":"548.206","TLE_LINE2":"2 48458  53.0525 179.8660 0001394  82.6551 277.4597 15.06391198 98283","FILE":"3787692","COUNTRY_CODE":"US","OBJECT_NAME":"STARLINK-2698","CLASSIFICATION_TYPE":"U","EPHEMERIS_TYPE":"0","ARG_OF_PERICENTER":"82.6551","MEAN_MOTION":"15.06391198","PERIAPSIS":"546.275","TIME_SYSTEM":"UTC","GP_ID":"225234162","INCLINATION":"53.0525","MEAN_MOTION_DDOT":"0.0000000000000","EPOCH":"2023-02-12T12:17:40.245504","TLE_LINE1":"1 48458U 21040AG  23043.51227136  .00000082  00000-0  24430-4 0  9992","OBJECT_TYPE":"PAYLOAD","DECAY_DATE":null,"REF_FRAME":"TEME","MEAN_MOTION_DOT":"0.00000082","NORAD_CAT_ID":"48458","LAUNCH_DATE":"2021-05-09","CENTER_NAME":"EARTH","ELEMENT_SET_NO":"999","BSTAR":"0.00002443000000","REV_AT_EPOCH":"9828","PERIOD":"95.593"}];
